code,dealerId,name,url,regionId,state,lat,long,phone,address
02042,02042,AutoNation Toyota Tempe,https://www.autonationtoyotatempe.com,15,AZ,33.34441,-111.97019,(602) 230-8084,"1550 East Camelback Road, Phoenix AZ 85014"
02050,02050,Avondale Toyota,https://www.avondaletoyota.com,15,AZ,33.459983,-112.276095,(480) 655-4300,"2020 W Riverview Auto Dr, Mesa AZ 85201"
02044,02044,Right Toyota,https://www.righttoyota.com,15,AZ,33.63494,-111.91403,(602) 863-0600,"2020 West Bell Road, Phoenix AZ 85023"
02051,02051,Earnhardt Toyota/Scion,https://www.earnhardttoyota.com,15,AZ,33.38821,-111.69959,(480) 898-6045,"1250 S. Gilbert Road, Chandler AZ 85286"
02038,02038,Hatch Toyota,https://www.hatchtoyota.com,15,AZ,34.258903,-110.013916,(833) 299-9159,"13543 N. Auto Show Avenue, Surprise AZ 85388"
02021,02021,Desert Toyota of Tucson,https://www.deserttoyota.com,15,AZ,32.205909,-110.839698,(520) 795-5565,"700 West Wetmore Road, Tucson AZ 85705"
02052,02052,Findlay Toyota Flagstaff,https://www.findlaytoyotaflagstaff.net,15,AZ,35.224093,-111.571421,(855) 235-4737,"2596 Fry Boulevard, Sierra Vista AZ 85635"
27020,27020,Findlay Toyota,https://www.findlaytoyota.com,15,NV,36.0475,-115.0204,(928) 443-8300,"3200 Willow Creek Road, Prescott AZ 86301"
27024,27024,David Wilson's Toyota and Scion of Las Vegas,https://www.dwtoyotalasvegas.com,15,NV,36.143896,-115.104659,(888) 824-2489,"6510 Showplace Avenue, Lake Havasu City AZ 86404"
27022,27022,Centennial Toyota,https://www.centennialtoyota.com,15,NV,36.2764,-115.2734,(702) 252-2138,"6300 West Sahara Avenue, Las Vegas NV 89146"
04739,04739,Toyota of Downtown LA,https://www.toyotaofdowntownla.com,11,CA,34.033649,-118.272743,(505) 722-3881,"2000 S. 2nd Street, Gallup NM 87301"
04159,04159,South Bay Toyota,https://www.southbaytoyota.com,11,CA,33.863338,-118.308931,(562) 904-5600,"9136 E. Firestone Blvd, Downey CA 90241"
04285,04285,Envision Toyota of Norwalk,https://www.norwalktoyota.com,11,CA,33.916434,-118.089192,(888) 788-1051,"9077 Washington Blvd., Culver City CA 90232"
04308,04308,Wondries Toyota,https://www.wondriestoyota.com,11,CA,34.09172,-118.139042,(323) 275-9160,"6000 Hollywood Blvd., Los Angeles CA 90028"
04649,04649,Toyota of Glendale,https://www.toyotaofglendale.com,11,CA,34.130207,-118.254733,(310) 683-0172,"1500 N. Sepulveda Blvd, Manhattan Beach CA 90266"
04315,04315,Marina Del Rey Toyota,https://www.marinadelreytoyota.com,11,CA,33.983406,-118.441489,(562) 860-6561,"18700 Studebaker Road, Cerritos CA 90703"
04726,04726,West Coast Toyota of Long Beach,https://www.westcoasttoyotalb.com,11,CA,33.804587,-118.152444,(562) 997-8545,"2849 Long Beach Blvd., Long Beach CA 90806"
04136,04136,Longo Toyota,https://www.longotoyota.com,11,CA,34.069226,-118.023705,(310) 325-7500,"2909 Pacific Coast Hwy, Torrance CA 90505"
04303,04303,Toyota Santa Monica,https://www.toyotasantamonica.com,11,CA,34.019963,-118.491055,(818) 508-2967,"4606 Lankershim Boulevard, North Hollywood CA 91602"
04640,04640,AutoNation Toyota Buena Park,https://www.autonationtoyotabuenapark.com,11,CA,33.866837,-117.997129,(626) 400-4505,"3600 E. Foothill Blvd., Pasadena CA 91107"
04309,04309,Puente Hills Toyota,https://www.puentehillstoyota.com,11,CA,33.999618,-117.933456,(818) 248-9363,"3333 Foothill Blvd., La Crescenta CA 91214"
04079,04079,Miller Toyota of Anaheim,https://www.millertoyotaofanaheim.com,11,CA,33.852505,-117.941912,(844) 781-4306,"5855 Van Nuys Blvd, Van Nuys CA 91401"
04356,04356,Toyota Place,https://www.toyotaplace.com,11,CA,33.766636,-117.959798,(877) 653-1093,"1800 E Garvey Avenue, West Covina CA 91791"
04013,04013,Hamer Toyota,https://www.hamertoyota.com,11,CA,34.271476,-118.4677,(714) 894-3322,"15300 Beach Boulevard, Westminster CA 92683"
04059,04059,Northridge Toyota,https://www.northridgetoyota.com,11,CA,34.235252,-118.560235,(714) 594-7493,"18881 Beach Blvd., Huntington Beach CA 92648"
04247,04247,Toyota of Orange,https://www.toyotaoforange.com,11,CA,33.811122,-117.83594,(909) 305-2000,"1949 Auto Centre Drive, Glendora CA 91740"
04543,04543,Tustin Toyota,https://www.tustintoyota.com,11,CA,33.726358,-117.800865,(949) 722-2000,"1966 Harbor Blvd., Costa Mesa CA 92627"
04347,04347,Frontier Toyota,https://www.frontiertoyota.com,11,CA,34.418263,-118.549957,(909) 542-1687,"601 Auto Center Drive, Claremont CA 91711"
04638,04638,AutoNation Toyota Irvine,https://www.autonationtoyotairvine.com,11,CA,33.640481,-117.736842,(805) 497-2791,"2401 E. Thousand Oaks Blvd., Thousand Oaks CA 91362"
04915,04915,Larry H. Miller Toyota Corona,https://www.lhmtoyotacorona.com,11,CA,33.878384,-117.599106,(805) 526-7500,"2380 First Street, Simi Valley CA 93065"
04279,04279,Capistrano Valley Toyota,https://www.capovalleytoyota.com,11,CA,33.476708,-117.674391,(949) 359-4160,"22722 Avenida Empresa, Rancho Santa Margarita CA 92688"
04737,04737,Toyota of Lancaster,https://www.toyotaoflancasterav.com,11,CA,34.670263,-118.152551,(951) 687-1622,"7870 Indiana Avenue, Riverside CA 92504"
04344,04344,Ventura Toyota,https://www.venturatoyota.com,11,CA,34.246782,-119.202545,(805) 988-2370,"1631 Auto Center Drive, Oxnard CA 93030"
04333,04333,Toyota of Redlands,https://www.toyotaofredlands.com,11,CA,34.064502,-117.196296,(909) 571-5082,"650 Auto Center Drive, San Bernardino CA 92408"
04263,04263,Valley Hi Toyota,https://www.valleyhitoyota.com,11,CA,34.517518,-117.31895,(888) 333-0852,"12630 Motor Way, Moreno Valley CA 92555"
04456,04456,Toyota of El Cajon,https://www.toyotaofelcajon.com,11,CA,32.80323,-116.974804,(951) 658-3188,"350 Carriage Circle, Hemet CA 92545"
04536,04536,Norm Reeves Toyota San Diego,https://www.normreevestoyotasandiego.com,11,CA,32.78242,-117.100757,(888) 622-6108,"13631 Poway Road, Poway CA 92064"
04576,04576,Kearny Mesa Toyota,https://www.kearnymesatoyota.com,11,CA,32.826166,-117.145374,(619) 591-0900,"650 Main Street, Chula Vista CA 91911"
04282,04282,Toyota of Escondido,https://www.toyotaescondido.com,11,CA,33.133405,-117.084564,(858) 581-4000,"4555 Mission Bay Drive, San Diego CA 92109"
04819,04819,Temecula Valley Toyota,https://www.tvtoyota.com,11,CA,33.515729,-117.156196,(760) 496-2501,"5424 Paseo Del Norte, Carlsbad CA 92008"
04076,04076,Toyota of The Desert,https://www.toyotaofthedesert.com,11,CA,33.78456,-116.473677,(760) 273-7895,"78-980 Varner Road, Indio CA 92203"
04150,04150,Toyota of Santa Barbara,https://www.toyotaofsantabarbara.com,11,CA,34.435356,-119.821038,(760) 256-3502,"631 W Main St, Barstow CA 92311"
04215,04215,Visalia Toyota,https://www.visaliatoyota.com,12,CA,36.321994,-119.276239,(805) 736-1295,"203 East Ocean Avenue, Lompoc CA 93436"
04277,04277,North Bakersfield Toyota,https://www.northbakersfieldtoyota.com,11,CA,35.437589,-119.076688,(559) 377-6489,"1835 Glendale Avenue, Hanford CA 93230"
04273,04273,Bill Wright Toyota,https://www.billwrighttoyota.com,11,CA,35.308013,-119.035187,(559) 891-2727,"3480 Floral Avenue, Selma CA 93662"
04290,04290,Toyota of Santa Maria,https://www.toyotasm.com,11,CA,34.929318,-120.419655,(805) 544-5087,"12350 Los Osos Valley Rd., San Luis Obispo CA 93405"
04098,04098,Michael Toyota,https://www.michaeltoyota.com,12,CA,36.82311,-119.79148,(559) 481-4001,"1300 Country Club Drive, Madera CA 93638"
04541,04541,Merced Toyota,https://www.mercedtoyota.com,12,CA,37.306201,-120.505082,(833) 289-7345,"895 West Shaw Avenue, Clovis CA 93612"
04361,04361,Gilroy Toyota,https://www.gilroytoyota.com,12,CA,36.99926,-121.559408,(877) 960-2162,"5 Heitzinger Plaza, Seaside CA 93955"
04426,04426,Capitol Toyota,https://www.capitoltoyota.com,12,CA,37.276117,-121.870433,(831) 462-4200,"4200 Auto Plaza Drive, Capitola CA 95010"
04412,04412,Toyota 101,https://www.toyota101.com,12,CA,37.496167,-122.230583,(800) 496-4307,"4202 Stevens Creek Blvd., San Jose CA 95129"
04119,04119,Victory Toyota of San Bruno,https://www.victorytoyotaofsanbruno.com,12,CA,37.627729,-122.415628,(650) 340-6900,"50 California Drive, Burlingame CA 94010"
04143,04143,City Toyota,https://www.citytoyota.com,12,CA,37.686383,-122.469427,(650) 494-2300,"690 San Antonio Road, Palo Alto CA 94306"
04688,04688,One Toyota of Oakland,https://www.onetoyota.com,12,CA,37.740045,-122.199774,(510) 634-7677,"24773 Mission Blvd., Hayward CA 94544"
04338,04338,Fremont Toyota,https://www.fremonttoyota.com,12,CA,37.501717,-121.977917,(877) 537-0404,"898 W. El Camino Real, Sunnyvale CA 94087"
04317,04317,Downtown Toyota of Oakland,https://www.downtowntoyota.com,12,CA,37.829983,-122.255401,(415) 592-0883,"3800 Geary Blvd, San Francisco CA 94118"
04660,04660,Toyota of Berkeley Certified Service Center,https://www.toyotaofberkeleyservicecenter.com,12,CA,37.885769,-122.307497,(510) 845-2530,"2400 Shattuck Avenue, Berkeley CA 94704"
04051,04051,Toyota Walnut Creek,https://www.toyotawc.com,12,CA,37.9089,-122.0618,(925) 829-7700,"4321 Toyota Drive, Dublin CA 94568"
04563,04563,Toyota Marin,https://www.toyotamarin.com,12,CA,37.968017,-122.51845,(888) 266-7137,"3233 Auto Plaza, Richmond CA 94806"
04122,04122,Novato Toyota,https://www.novatotoyota.com,12,CA,38.092567,-122.55655,(855) 452-5902,"1090 Concord Avenue, Concord CA 94520"
04292,04292,Toyota of Vallejo,https://www.toyotavallejo.com,12,CA,38.13672,-122.21203,(925) 778-4800,"1817 Auto Center Drive, Antioch CA 94509"
04364,04364,Maita's Toyota of Sacramento,https://www.maitatoyota.com,12,CA,38.629117,-121.403195,(209) 839-3504,"2895 North Naglee Road, Tracy CA 95304"
04201,04201,Elk Grove Toyota,https://www.elkgrovetoyota.com,12,CA,38.406883,-121.389,(530) 753-3352,"4202 Chiles Road, Davis CA 95616"
04421,04421,Roseville Toyota,https://www.rosevilletoyota.com,12,CA,38.751146,-121.25851,(916) 355-1500,"12747 Folsom Blvd., Folsom CA 95630"
04682,04682,Auburn Toyota,https://www.auburntoyota.com,12,CA,38.91795,-121.081532,(707) 446-7000,"500 Orange Drive, Vacaville CA 95687"
04265,04265,Future Toyota of Yuba City,https://www.futuretoyotayubacity.com,12,CA,39.140599,-121.654589,(530) 622-6232,"140 Forni Road, Placerville CA 95667"
04324,04324,Toyota Town,https://www.toyotaofstockton.com,12,CA,38.0204,-121.28766,(707) 920-2700,"2575 Auto Mall Parkway, Fairfield CA 94533"
04072,04072,Hansel Toyota,https://www.hanseltoyota.com,12,CA,38.26495,-122.662567,(707) 927-4466,"466 Soscol Avenue, Napa CA 94559"
04039,04039,Modesto Toyota,https://www.modestotoyota.com,12,CA,37.70514,-120.99519,(707) 535-2330,"2875 Corby Avenue, Santa Rosa CA 95407"
04158,04158,Oroville Toyota,https://www.orovilletoyota.com,12,CA,39.501892,-121.559372,(707) 443-4871,"4800 N. Highway 101, Eureka CA 95501"
04288,04288,Chuck Patterson Toyota Dodge,https://www.chuckpattersontoyota.net,12,CA,39.757874,-121.860028,(530) 523-5249,"1855 Lake Tahoe Boulevard, South Lake Tahoe CA 96150"
36080,36080,Lithia Toyota of Klamath Falls,https://www.klamathfallstoyota.com,13,OR,42.208296,-121.756184,(877) 360-6083,"250 E. Cypress Avenue, Redding CA 96002"
11035,11035,Teton Toyota,https://www.tetontoyota.com,13,ID,43.468753,-112.076093,(208) 237-2700,"1855 Flandro Drive, Pocatello ID 83202"
11011,11011,Stone's Town & Country Toyota,https://www.stonestoyota.com,13,ID,43.813527,-111.800737,(208) 733-2857,"318 Shoshone Street West, Twin Falls ID 83301"
46100,46100,Toyota of Pullman,https://www.toyotaofpullman.com,13,WA,46.738183,-117.061781,(208) 743-5577,"2203 16th Avenue, Lewiston ID 83501"
11036,11036,Edmark Toyota,https://www.edmarktoyota.com,13,ID,43.604209,-116.51415,(208) 378-9000,"9101 West Fairview Avenue, Boise ID 83704"
11030,11030,Parker Toyota,https://www.parkertoyota.com,13,ID,47.715096,-116.793561,(888) 548-4011,"313 SE 13th Street, Ontario OR 97914"
46099,46099,Larry H. Miller Downtown Toyota Spokane,https://www.lhmtoyotaspokane.com,13,WA,47.653682,-117.428513,(509) 927-1280,"8600 East Sprague Avenue, Spokane Valley WA 99212"
43025,43025,Stephen Wade Toyota,https://www.stephenwadetoyota.com,15,UT,37.077345,-113.586613,(866) 319-3253,"1585 Lamoille Hwy., Elko NV 89801"
43028,43028,Brent Brown Toyota,https://www.brentbrowntoyota.com,15,UT,40.270575,-111.711954,(801) 553-5800,"11453 So. Lone Peak Pkwy, Draper UT 84020"
43026,43026,Performance Toyota Bountiful,https://www.performancetoyotabountiful.com,15,UT,40.864621,-111.894165,(833) 253-8743,"730 South West Temple, Salt Lake City UT 84101"
27016,27016,Fallon Ford Toyota,https://www.fallontoyota.com,15,NV,39.474514,-118.79251,(801) 394-5701,"777 West Riverdale Road, Riverdale UT 84405"
27015,27015,Carson City Toyota,https://www.carsoncitytoyota.com,15,NV,39.143833,-119.768715,(760) 872-4141,"310 South Main St, Bishop CA 93514"
36104,36104,Columbia Gorge Toyota,https://www.columbiagorgetoyota.com,13,OR,45.611231,-121.206998,(775) 826-2750,"2100 Kietzke Lane, Reno NV 89502"
36102,36102,Gresham Toyota,https://www.greshamtoyota.com,13,OR,45.504067,-122.41357000000001,(541) 382-4040,"61430 S. Hwy 97, Bend OR 97702"
36106,36106,Toyota of Gladstone,https://www.toyotaofgladstone.com,13,OR,45.3815,-122.6059,(800) 522-2308,"80364 N. Highway 395, Hermiston OR 97838"
36105,36105,Damian Lillard Toyota,https://www.damianlillardtoyota.com,13,OR,45.231875,-123.167255,(503) 255-0177,"750 SE 122nd Avenue, Portland OR 97233"
36103,36103,Wilsonville Toyota,https://www.wilsonvilletoyota.com/,13,OR,45.31803,-122.772,(800) 888-1391,"783 Auto Group Avenue N.E., Salem OR 97301"
36047,36047,Beaverton Toyota,https://www.beavertontoyota.com,13,OR,45.4888,-122.8257,(503) 693-7412,"1415 S.E. River Road, Hillsboro OR 97123"
36094,36094,Toyota of Corvallis,https://www.toyotaofcorvallis.com,13,OR,44.571797,-123.259921,(800) 634-5713,"1205 Price Road SE, Albany OR 97321"
46071,46071,Vancouver Toyota,https://www.vancouvertoyota.com,13,WA,45.660082,-122.567999,(503) 284-1105,"55 NE Broadway Street, Portland OR 97232"
36085,36085,Kendall Toyota,https://www.kendalltoyotaofeugene.com,13,OR,44.073436,-123.10855,(360) 501-3040,"2632 Coweeman Park Drive, Kelso WA 98626"
36052,36052,Lithia Toyota,https://www.lithiatoyotamedford.com,13,OR,42.33982,-122.876381,(800) 888-6305,"163 S. 9th Street, Springfield OR 97477"
46102,46102,McCurley Integrity Toyota of Walla Walla,https://www.mccurleytoyota.com,13,WA,46.078869,-118.304187,(541) 476-6858,"375 Redwood Highway, Grants Pass OR 97527"
46042,46042,Toyota of Puyallup,https://www.toyotaofpuyallup.com,13,WA,47.2035,-122.312883,(877) 403-7776,"3405 N. Auburn Way, Auburn WA 98002"
46076,46076,Burien Toyota,https://www.burientoyota.com,13,WA,47.467983,-122.334262,(253) 475-4155,"3506 S Sprague Avenue, Tacoma WA 98409"
46088,46088,Toyota of Tacoma,https://www.toyotaoftacoma.com,13,WA,47.186083000000004,-122.482817,(800) 541-1425,"150 SW 7th Street, Renton WA 98057"
46050,46050,Michael's Toyota of Bellevue,https://www.toyotaofbellevue.com,13,WA,47.5817,-122.141452,(203) 382-4300,"1925 Airport Way South, Seattle WA 98134"
46089,46089,Toyota of Kirkland,https://www.toyotaofkirkland.com,13,WA,47.711752,-122.165779,(360) 377-1200,"901 West Hills Blvd., Bremerton WA 98312"
46090,46090,Magic Toyota,https://www.magictoyota.com,13,WA,47.8061,-122.327657,(206) 366-3127,"13355 Lake City Way, N.E., Seattle WA 98125"
46009,46009,Rodland Toyota,https://www.rodlandtoyota.com,13,WA,47.935633,-122.219647,(360) 539-3952,"6969 Tyee Drive SW, Tumwater WA 98512"
46078,46078,Foothills Toyota,https://www.foothillstoyota.com,13,WA,48.44981,-122.34566,(888) 651-8592,"16120 Smokey Point Blvd., Marysville WA 98271"
46081,46081,Five Star Toyota,https://www.fivestartoyota.com,13,WA,46.967507,-123.802026,(360) 227-0730,"1950 NW Louisiana Avenue, Chehalis WA 98532"
46095,46095,Bud Clary Toyota of Yakima,https://www.budclarytoyotaofyakima.com,13,WA,46.564034,-120.497337,(509) 888-5000,"500 3rd Street, S.E., East Wenatchee WA 98802"
05034,05034,Stevinson Toyota West,https://www.stevinsontoyotawest.com,15,CO,39.7285,-105.1641,(303) 302-6562,"201 West 70th Avenue, Denver CO 80221"
05054,05054,Larry H. Miller Toyota Boulder,https://www.bouldertoyota.com,15,CO,40.023133,-105.241702,(303) 218-7130,"5460 South Broadway, Englewood CO 80113"
05043,05043,"Stapp Interstate Toyota, Inc.",https://www.interstatetoyota.com,15,CO,40.117725,-104.97839,(866) 219-5779,"10531 East Arapahoe Road, Centennial CO 80112"
05068,05068,Ehrlich Toyota East,https://www.ehrlichtoyotaeast.com,15,CO,40.261395,-103.802768,(970) 223-3100,"4455 South College Avenue, Ft Collins CO 80525"
05069,05069,Phil Long Toyota,https://www.phillongtoyota.com,15,CO,37.171434,-104.5063,(719) 543-1719,"2220 US Highway 50 West, Pueblo CO 81008"
05070,05070,Durango Toyota,https://www.durangotoyota.com,15,CO,37.230452,-107.861592,(970) 249-6691,"2262 East Main Street, Montrose CO 81401"
05057,05057,"Hellman Toyota, Inc.",https://www.hellmantoyota.com,15,CO,38.748901,-108.062082,(505) 327-5900,"3701 E. Main Street, Farmington NM 87402"
05046,05046,Bighorn Toyota,https://www.bighorntoyota.com,15,CO,39.562797,-107.368132,(970) 243-0843,"2264 Highway 6 and 50, Grand Junction CO 81505"
33024,33024,Dan Porter Honda-Toyota,https://www.danportertoyota.com,23,ND,46.882861,-102.749101,(406) 545-0129,"1532 Grand Avenue, Billings MT 59102"
49030,49030,Fremont Toyota of Sheridan,https://www.fremonttoyotasheridan.com,15,WY,44.780704,-106.942888,(701) 852-0151,"3615 South Broadway, Minot ND 58702"
49032,49032,Yellowstone Toyota,https://www.yellowstonetoyota.com,15,WY,44.74696,-108.77475,(701) 223-2190,"3955 Trenton Drive, Bismarck ND 58503"
49026,49026,Foss Toyota,https://www.fosstoyota.com,15,WY,42.842358,-106.232918,(605) 342-2490,"1920 East Mall Drive, Rapid City SD 57701"
25061,25061,Helena Toyota,https://www.helenatoyota.com,13,MT,46.590868,-111.967559,(406) 761-4900,"3900 10th Avenue South, Great Falls MT 59405"
25064,25064,Kalispell Toyota,https://www.kalispelltoyota.com,13,MT,48.166459,-114.28899,(406) 551-6628,"8476 Huffine Lane, Bozeman MT 59718"
25066,25066,Lithia Toyota of Missoula,https://www.lithiatoyotamissoula.com,13,MT,46.834613,-114.046846,(406) 782-9181,"5103 Harrison Avenue, Butte MT 59701"
30027,30027,Vescovo Toyota of Las Cruces,https://www.vescovotoyota.com,15,NM,32.2992,-106.791,(505) 629-4175,"1601 St. Michaels Drive, Santa Fe NM 87505"
42345,42345,Poe Toyota,https://www.poetoyota.com,60,TX,31.7877,-106.4061,(575) 538-3777,"2750 Highway 180 E., Silver City NM 88061"
30041,30041,Roswell Toyota,https://www.roswelltoyota.com,15,NM,33.394724,-104.556163,(575) 762-4551,"600 W. 7th Street, Clovis NM 88101"
49022,49022,"Spradley Barr Motors Toyota, Inc.",https://www.spradleybarrtoyota.com,15,WY,41.13181,-104.839328,(307) 362-5015,"401 N. Center Street, Rock Springs WY 82901"
26029,26029,Team Toyota,https://www.teamtoyotascottsbluff.com,23,NE,41.864686,-103.637031,(307) 742-7423,"2310 East Grand Avenue, Laramie WY 82070"
42262,42262,AutoNation Toyota South Austin,https://www.autonationtoyotasouthaustin.com,60,TX,30.207361,-97.757719,(307) 206-5382,"103 Fremont Way, Lander WY 82520"
42344,42344,Toyota of Cedar Park,https://www.toyotaofcedarpark.com,60,TX,30.543361,-97.815361,(833) 283-9709,"2307 North I-35, Round Rock TX 78664"
42407,42407,San Marcos Toyota,https://www.sanmarcostoyota.com,60,TX,29.815615,-97.997752,(512) 862-1650,"806 Highway 71 West, Bastrop TX 78602"
42202,42202,Toyota of Richardson,https://www.toyotaofrichardson.com,60,TX,32.963767,-96.725302,(972) 241-6655,"2610 Forest Lane, Dallas TX 75234"
42320,42320,Lone Star Toyota of Lewisville,https://www.lonestartoyotalewisville.com,60,TX,33.02126,-96.98711,(972) 248-7204,"6888 State Hwy 121, Plano TX 75024"
42408,42408,John Eagle Sport City Toyota,https://www.sportcitytoyota.com,60,TX,32.862817,-96.662333,(972) 258-1200,"1999 West Airport Frwy., Irving TX 75062"
42268,42268,Texas Toyota of Grapevine,https://www.toyotaofgrapevine.com,60,TX,32.924339,-97.06938,(214) 324-0411,"9525 E. RL Thornton Frwy, Dallas TX 75228"
42346,42346,Longo Toyota of Prosper,https://www.longotoyotaofprosper.com,60,TX,33.220539,-96.833488,(214) 544-8987,"3350 S. Central Expresswy, McKinney TX 75070"
42323,42323,Toyota of Denton,https://www.toyotaofdenton.com,60,TX,33.166383,-97.083054,(817) 505-0275,"1661 Wet 'N Wild Way, Arlington TX 76011"
42302,42302,Toyota of Rockwall,https://www.toyotaofrockwall.com,60,TX,32.9112,-96.44628,(972) 780-1166,"39660 LBJ Freeway (I-20), Dallas TX 75237"
42286,42286,Vandergriff Toyota,https://www.vandergrifftoyota.com,60,TX,32.67675,-97.120035,(817) 287-5200,"204 Northeast Loop 820, Hurst TX 76053"
42327,42327,Family Toyota of Burleson,https://www.familytoyotaofburleson.com,60,TX,32.526111,-97.307658,(817) 560-1500,"9001 Camp Bowie West Blvd., Fort Worth TX 76116"
42402,42402,Shottenkirk Toyota Weatherford,https://www.shottenkirktoyotaweatherford.com,60,TX,32.757132,-97.699978,(903) 874-6556,"3400 South Interstate 45, Corsicana TX 75110"
42404,42404,Toyota of Paris,https://www.toyotaofparistx.com,60,TX,33.672811,-95.516097,(817) 279-6850,"5100 E. US Highway 377, Granbury TX 76049"
42352,42352,Toyota of Longview,https://www.toyotaoflongview.com,60,TX,32.530617,-94.773354,(903) 306-2801,"6233 Mall Drive, Nash TX 75569"
42242,42242,Classic Toyota,https://www.classictoyotatyler.com,60,TX,32.304473,-95.321474,(903) 938-9026,"5015 East End Blvd. South, Marshall TX 75672"
42325,42325,Palestine Toyota,https://www.palestinetoyota.com,60,TX,31.732877,-95.62258,(903) 577-7770,"102 Tankersley Road, Mt. Pleasant TX 75455"
42406,42406,Toyota of Wichita Falls,https://www.toyotaofwf.com,60,TX,33.89283,-98.483623,(936) 699-1029,"1807 South Medford Drive, Lufkin TX 75901"
42216,42216,Jeff Hunter Toyota,https://www.jeffhuntertoyota.com,60,TX,31.502044,-97.171966,(254) 778-4285,"7777 S. General Bruce Dr., Temple TX 76502"
42299,42299,Bruner Toyota,https://www.brunertoyota.com,60,TX,31.736842,-98.964271,(254) 690-5800,"4001 E Central Texas Exp., Killeen TX 76543"
42138,42138,Mike Calvert Toyota,https://www.mikecalverttoyota.com,60,TX,29.676809,-95.413594,(888) 502-4761,"1500 Knickerbocker Road, San Angelo TX 76904"
42291,42291,Community Toyota,https://www.communitytoyota.com,60,TX,29.804387,-94.989061,(713) 489-2097,"12111 Gulf Freeway, Bldg. B, Houston TX 77034"
42321,42321,Keating Toyota,https://www.keatingtoyota.com,60,TX,29.497519,-95.389287,(281) 338-9700,"2112 Gulf Freeway, League City TX 77573"
42119,42119,Tejas Toyota,https://www.tejastoyota.com,60,TX,29.995901,-95.272558,(713) 270-3951,"9400 Southwest Freeway, Houston TX 77074"
42270,42270,Joe Myers Toyota,https://www.joemyerstoyota.com,60,TX,29.904532,-95.603264,(281) 496-9730,"11800 Katy Freeway, Houston TX 77079"
42282,42282,Fred Haas Toyota Country,https://www.fredhaastoyotacountry.com,60,TX,30.007383,-95.588,(877) 863-0741,"20400 Interstate 45 North, Spring TX 77373"
42284,42284,Don McGill Toyota of Katy,https://www.toyotaofkaty.com,60,TX,29.7841,-95.7425,(281) 341-5900,"20465 Southwest Freeway, Richmond TX 77469"
42250,42250,Gulf Coast Toyota,https://www.gulfcoasttoyota.com,60,TX,29.1999,-95.4509,(888) 380-1696,"7802 Broadway, Galveston TX 77554"
42316,42316,Huntsville Toyota,https://www.huntsvilletoyotapm.com,60,TX,30.68512,-95.537602,(936) 442-4160,"500 I-45 South, Conroe TX 77304"
42182,42182,Kinsel Toyota,https://www.kinseltoyota.com,60,TX,30.118294,-94.147187,(866) 993-3559,"2229 Highway 69 N, Nederland TX 77627"
17060,17060,Lake Charles Toyota,https://www.lakecharlestoyota.com,60,LA,30.18609,-93.179351,(409) 231-6778,"1396 Highway 327 East, Silsbee TX 77656"
42313,42313,Toyota of Victoria,https://www.toyotaofvictoria.com,60,TX,28.849355,-96.99702,(979) 776-0404,"728 N. Earl Rudder Frwy., Bryan TX 77802"
42342,42342,North Park Toyota of San Antonio,https://www.northparktoyota.com,60,TX,29.315943,-98.612196,(877) 894-7393,"6324 Bob Bullock Loop, Laredo TX 78041"
42201,42201,Red McCombs Toyota,https://www.redmccombstoyota.com,60,TX,29.57157,-98.59498,(877) 676-9734,"5730 N.W. Loop 410, San Antonio TX 78238"
42116,42116,Alamo Toyota,https://www.alamotoyota.com,60,TX,29.60719,-98.470768,(210) 852-2672,"12102 IH-35 North, San Antonio TX 78233"
42304,42304,Mike Shaw Toyota,https://www.mikeshawtoyota.com,60,TX,27.841286,-97.631672,(210) 630-4199,"31205 IH-10 West, Boerne TX 78006"
42322,42322,Toyota of Pharr,https://www.toyotaofpharr.com,60,TX,26.199688,-98.20042,(361) 444-0160,"6672 S. Padre Island Dr., Corpus Christi TX 78412"
42338,42338,Brownsville Toyota,https://www.brownsvilletoyota.com,60,TX,26.00356,-97.528424,(956) 622-4457,"8721 W. Expressway 83, Harlingen TX 78552"
42206,42206,Tegeler Toyota,https://www.tegelertoyota.com,60,TX,30.152029,-96.416216,(830) 775-7577,"3617 Highway 90 West, Del Rio TX 78840"
35074,35074,Four Stars Toyota,https://www.fourstarstoyota.com,60,OK,34.636614,-99.298117,(806) 454-7695,"4500 South Soncy Road, Amarillo TX 79119"
42264,42264,Gene Messer Toyota,https://www.genemessertoyota.com,60,TX,33.578674,-101.949217,(806) 665-1665,"805 North Hobart Street, Pampa TX 79065"
42309,42309,Toyota of Midland,https://www.toyotaofmidland.com,60,TX,31.989633,-102.150182,(325) 794-4092,"4449 Southwest Drive, Abilene TX 79606"
24079,24079,Rolling Hills Toyota,https://www.rollinghillstoyota.com,23,MO,39.781926,-94.800823,(432) 367-2070,"5050 John Ben Shepperd Parkway, Odessa TX 79762"
24074,24074,Jay Wolfe Toyota,https://www.jaywolfetoyota.com,23,MO,39.26851,-94.66667,(913) 299-8600,"10100 Parallel Parkway, Kansas City KS 66109"
15047,15047,Hendrick Toyota Merriam,https://www.hendricktoyotamerriam.com,23,KS,39.006754,-94.695568,(785) 312-3803,"3430 S. Iowa Street, Lawrence KS 66046"
24061,24061,"Molle Toyota, Inc.",https://www.molletoyota.com,23,MO,38.94134,-94.60011,(913) 780-9919,"685 N. Rawhide, Olathe KS 66061"
15053,15053,Little Apple Toyota,https://www.littleappletoyota.net,23,KS,39.181434,-96.608947,(816) 358-7600,"501 N.E. Colbern Road, Lee's Summit MO 64086"
15057,15057,Clint Bowyer Toyota,https://www.clintbowyertoyota.com,23,KS,38.408354,-96.218572,(877) 733-4041,"2951 S.W. Fairlawn Road, Topeka KS 66614"
15052,15052,Conklin Toyota Salina,https://www.conklintoyotasalina.com,23,KS,38.78993,-97.613413,(620) 644-9888,"1819 South Main Street, Ft Scott KS 66701"
15046,15046,Lewis Toyota of Hays,https://www.lewistoyotaofhays.com,23,KS,38.903116,-99.316497,(402) 476-4000,"8600 South 33rd Street, Lincoln NE 68516"
15054,15054,Midwest Toyota,https://www.midwesttoyotadealer.com,23,KS,38.087131,-97.908845,(316) 652-2222,"7333 East Kellogg, Wichita KS 67207"
35011,35011,Doenges Toyota,https://www.doengestoyota.com,60,OK,36.722952,-95.935925,(888) 284-4887,"2101 West Main Street, Independence KS 67301"
15059,15059,Lewis Toyota of Garden City,https://www.lewistoyotaofgardencity.com,23,KS,37.9763,-100.8374,(877) 361-3673,"211 West 2nd Street, McCook NE 69001"
26016,26016,Ernst Toyota,https://www.ernsttoyota.com,23,NE,41.437531,-97.318075,(620) 371-1367,"907 S 2nd Street, Dodge City KS 67801"
26021,26021,Baxter Toyota of La Vista,https://www.toyotaoflavista.com,23,NE,41.188171,-96.107041,(402) 496-4444,"18201 Cuming Street, Omaha NE 68022"
26015,26015,Cornhusker Toyota,https://www.cornhuskertoyota.com,23,NE,40.920114,-98.384008,(531) 444-2678,"7851 S. 19th Circle, Bellevue NE 68147"
40020,40020,Gateway Toyota,https://www.gatewaytoyotapierre.com,23,SD,44.363572,-100.347779,(308) 532-8400,"2600 S Willow & I-80, North Platte NE 69103"
40009,40009,Harr Toyota,https://www.harr-toyota.com,23,SD,45.460643,-98.429008,(888) 263-0578,"4101 W. 12th Street, Sioux Falls SD 57106"
40017,40017,Sharp Chevrolet-Toyota,https://www.sharptoyota.com,23,SD,44.889951,-97.134158,(712) 277-4271,"3131 Singing Hills Blvd., Sioux City IA 51106"
22045,22045,Quality Toyota,https://www.qualitytoyota.net,21,MN,46.283304,-96.095885,(800) 426-7946,"222 South 40TH Street, Fargo ND 58103"
35072,35072,Jim Norton Toyota of Oklahoma City,https://www.jimnortontoyotaokc.com,60,OK,35.569733,-97.663893,(701) 252-4690,"500 17th St SW, Jamestown ND 58401"
35055,35055,Bob Howard Toyota,https://www.bobhowardtoyota.com,60,OK,35.60119,-97.49668,(405) 741-4451,"5800 Tinker Diagonal, Midwest City OK 73110"
35052,35052,Janzen Toyota,https://www.janzentoyota.com,60,OK,36.116894,-97.125543,(800) 375-9550,"4050 N. Interstate Drive, Norman OK 73072"
35048,35048,Northcutt Toyota,https://www.northcutttoyota.com,60,OK,36.39007,-97.92097,(580) 226-1313,"402 Holiday Drive, Ardmore OK 73401"
35049,35049,Jim Norton Toyota,https://www.jimnortontoyota.com,60,OK,36.02105,-95.88569,(918) 836-2769,"6868 East BA Frontage Road, Tulsa OK 74145"
24076,24076,Frank Fletcher Toyota,https://www.fletcher-toyota.com,23,MO,37.065804,-94.477639,(918) 687-1234,"2314 West Shawnee, Muskogee OK 74401"
42339,42339,Classic Toyota of Texoma,https://www.classictoyotatexoma.com,60,TX,33.774142,-96.582528,(479) 646-7800,"6200 South 36th Street, Fort Smith AR 72908"
03049,03049,Ryburn Toyota,https://www.ryburntoyota.com,60,AR,33.626689,-91.803016,(870) 534-7521,"3010 Auto Drive, Pine Bluff AR 71601"
03074,03074,Mark McLarty Toyota,https://www.markmclartytoyota.com,60,AR,34.796997,-92.217703,(501) 568-5800,"10825 Colonel Glenn Road, Little Rock AR 72204"
03053,03053,"Phil Wright Toyota, Co.",https://www.philwrighttoyota.com,60,AR,35.276732,-93.09056,(501) 520-0000,"4709 Central Avenue, Hot Springs AR 71913"
03075,03075,Red River Toyota,https://www.redrivertoyota.com,60,AR,35.24569,-90.782425,(501) 382-7684,"1355 Exchange Avenue, Conway AR 72032"
03067,03067,Central Toyota,https://www.centraltoyota.com,60,AR,35.801135,-90.67033,(501) 281-4620,"1745 Janet Drive, Searcy AR 72143"
41043,41043,Principle Toyota,https://www.principletoyota.com,22,TN,35.05105,-89.817133,(901) 444-3119,"4601 Hutton Way, Memphis TN 38116"
23079,23079,Principle Toyota of Hernando,https://www.principletoyotaofhernando.com,60,MS,34.818872,-89.972853,(901) 377-8000,"2201 North Germantown Parkway, Cordova TN 38016"
03066,03066,Toyota of Fayetteville,https://www.toyotaoffayetteville.com,60,AR,36.108448,-94.17794,(870) 741-5451,"1407 Highway 62-65 412 NO, Harrison AR 72601"
14044,14044,Toyota of Des Moines,https://www.toyotadm.com,23,IA,41.656837,-93.776291,(866) 298-1541,"411 South Metro Parkway, Rogers AR 72758"
14048,14048,"Fort Dodge Ford, Lincoln, Toyota",https://www.fortdodgetoyota.com,23,IA,42.501032,-94.159403,(800) 232-4081,"2212 South Duff, Ames IA 50010"
14053,14053,Motor Inn Toyota of Carroll,https://www.motorinntoyotaofcarroll.com,23,IA,42.07869,-94.886116,(877) 360-9256,"3851 Fourth Street SW, Mason City IA 50401"
14049,14049,Okoboji Toyota,https://www.okobojitoyota.com,23,IA,43.422734,-95.130575,(319) 378-4400,"1190 Boyson Road, Hiawatha IA 52233"
48060,48060,Toyota of La Crosse,https://www.toyotaoflacrosse.com,21,WI,43.805287,-91.253808,(888) 703-6945,"3450 Center Grove Drive, Dubuque IA 52003"
22047,22047,Rochester Toyota,https://www.rochestertoyota.com,21,MN,43.958897,-92.464171,(608) 452-4080,"1077 W. Service Drive, Winona MN 55987"
14036,14036,Deery Brothers Toyota,https://www.deerybrotherstoyota.com,23,IA,40.825112,-91.16928,(888) 481-3206,"3000 Highway 38 North, Muscatine IA 52761"
12158,12158,Galesburg Toyota,https://www.galesburgtoyota.com,21,IL,40.980676,-90.362968,(888) 833-2113,"3100 East Jackson, Macomb IL 61455"
14052,14052,Smart Toyota of Quad Cities,https://www.smarttoyotaqc.com,23,IA,41.574267999999996,-90.552525,(844) 234-9513,"2435 Lincolnway, Clinton IA 52732"
12136,12136,Ken Nelson Toyota,https://www.kennelsontoyota.com,21,IL,41.857124,-89.490042,(309) 781-6968,"5500 45th Avenue Drive, Moline IL 61265"
17067,17067,Ray Brandt Toyota,https://www.raybrandttoyota.com,60,LA,30.007144,-90.233551,(504) 837-5623,"3701 North Causeway Blvd., Metairie LA 70002"
17058,17058,Toyota of New Orleans,https://www.toyotaofneworleans.com,60,LA,30.053973,-89.947249,(504) 341-3300,"3800 Lapalco Blvd., Harvey LA 70058"
17066,17066,Northshore Toyota,https://www.northshoretoyota.com,60,LA,30.428625,-90.079251,(985) 726-7250,"300 E. Howze Beach Road, Slidell LA 70461"
17070,17070,Greg Leblanc Toyota,https://www.gregleblanctoyota.com,60,LA,29.60449,-90.751058,(985) 345-1425,"1415 South Morrison Blvd, Hammond LA 70403"
17055,17055,Team Toyota,https://www.team-toyota.com,60,LA,30.442924,-91.009833,(225) 408-1200,"13250 Airline Highway, Baton Rouge LA 70817"
17029,17029,Bubba Oustalet Toyota,https://www.oustalettoyota.com,60,LA,30.22216,-92.657185,(225) 925-2525,"9150 Airline Highway, Baton Rouge LA 70815"
17057,17057,John Harvey Toyota,https://www.johnharveytoyota.com,60,LA,32.563132,-93.728687,(318) 255-1387,"1001 N. Service Road East, Ruston LA 71270"
17027,17027,Van-Trow Toyota,https://www.vantrowtoyota.com,60,LA,32.519925,-92.103619,(318) 798-3773,"1199 E. Bert Kouns Ind. Loop, Shreveport LA 71105"
17073,17073,Hixson Toyota,https://www.hixsontoyota.com,60,LA,31.08775,-93.270504,(318) 445-1486,"5735 Coliseum Blvd., Alexandria LA 71303"
22053,22053,Inver Grove Toyota,https://www.invergrovetoyota.com,21,MN,44.880524,-93.08454,(601) 446-5588,"335 Highway 61 South, Natchez MS 39120"
22048,22048,Walser Bloomington Toyota,https://www.walsertoyota.com,21,MN,44.857183,-93.33509,(651) 288-2500,"2873 Maplewood Dr., Maplewood MN 55109"
22038,22038,Luther Brookdale Toyota,https://www.lutherbrookdaletoyota.com,21,MN,45.078066,-93.333707,(952) 435-8200,"14730 Buck Hill Road, Burnsville MN 55306"
22046,22046,Carlson Toyota,https://www.carlsontoyota.com,21,MN,45.205213,-93.36378,(612) 428-0596,"8805 Wayzata Blvd, Golden Valley MN 55426"
22056,22056,Heintz Toyota of Mankato,https://www.heintztoyota.com,21,MN,44.176611,-93.965552,(320) 227-8052,"418 2nd Street South, Waite Park MN 56387"
48058,48058,Ashland Honda Toyota,https://www.ashland-toyota.com,21,WI,46.605203,-90.856043,(218) 733-0100,"4781 Miller Trunk Hwy., Duluth MN 55811"
22051,22051,Iron Trail Toyota,https://www.irontrailtoyota.com,21,MN,47.509292,-92.554502,(715) 394-4429,"1002 Tower Avenue, Superior WI 54880"
22055,22055,Lake Country Toyota,https://www.lakecountrytoyota.com,21,MN,46.380752,-94.254466,(320) 231-1160,"3700 Highway 71 South, Willmar MN 56201"
24063,24063,Jerry Ackerman Toyota,https://www.ackermantoyota.com,23,MO,38.619732,-90.28808,(218) 444-3040,"705 Paul Bunyan Drive NW, Bemidji MN 56601"
24073,24073,John Weiss' Toyota of South County,https://www.weisstoyota.com,23,MO,38.521417,-90.358667,(314) 966-5404,"10725 Manchester Road, Kirkwood MO 63122"
12071,12071,Newbold Toyota,https://www.newboldtoyota.com,21,IL,38.58452,-89.939446,(314) 731-0911,"9095 Dunn Road, Hazelwood MO 63042"
24077,24077,Jay Wolfe Toyota of West County,https://www.toyotaofwestcounty.com,23,MO,38.592697,-90.531731,(314) 453-2377,"12833 Olive Street Road, Creve Coeur MO 63141"
24036,24036,Tom Pappas Toyota,https://www.pappastoyota.com,23,MO,38.800211,-90.602019,(618) 208-2400,"850 Homer Adams Parkway, Alton IL 62002"
24052,24052,Straatmann Toyota,https://www.straatmanntoyota.com,23,MO,38.52573,-90.945553,(888) 957-7968,"301 Autumn Ridge Drive, Herculaneum MO 63048"
24083,24083,Kirksville Toyota,https://www.kirksvilletoyota.com,23,MO,40.2312,-92.583059,(217) 224-1500,"5333 Broadway, Quincy IL 62301"
12153,12153,Marion Toyota,https://www.mariontoyota.com,21,IL,37.74596,-88.990892,(800) 455-5555,"357 Siemers Drive, Cape Girardeau MO 63701"
24080,24080,McCarthy Toyota of Sedalia,https://www.mccarthytoyotaofsedalia.com,23,MO,38.709292,-93.266406,(866) 553-5578,"801 S. Westwood Blvd., Poplar Bluff MO 63901"
24060,24060,Riley Toyota,https://www.rileytoyota.com,23,MO,38.548098,-92.203703,(573) 445-4450,"1180 Vandiver Drive, Columbia MO 65202"
24071,24071,Reliable Toyota,https://www.reliabletoyotamo.com,23,MO,37.1806755065917,-93.222038269043,(800) 844-6026,"169 St. Robert Blvd., St. Robert MO 65584"
10106,10106,World Toyota,https://www.worldtoyota.com,50,GA,33.90662,-84.294198,(601) 485-1620,"2900 Highway 39 North, Meridian MS 39301"
10131,10131,Stone Mountain Toyota,https://www.stonemountaintoyota.com,50,GA,33.8335,-84.0823,(800) 645-6709,"7969 Mall Parkway, Lithonia GA 30038"
10032,10032,Marietta Toyota,https://www.mariettatoyota.com,50,GA,33.934257,-84.512243,(877) 227-9537,"2345 Pleasant Hill Road, Duluth GA 30096"
10124,10124,AutoNation Toyota Mall of Georgia,https://www.autonationtoyotamallofgeorgia.com,50,GA,34.078351,-83.983961,(770) 535-0778,"3150 Milton Martin Toyota Way, Gainesville GA 30507"
39064,39064,Bob Richards Toyota,https://www.bobrichardstoyota.com,50,SC,33.48745,-81.9290008,(706) 868-0582,"3514 Washington Road, Augusta GA 30907"
10078,10078,Savannah Toyota,https://www.savannahtoyota.com,50,GA,31.979098,-81.141519,(229) 386-4000,"2013 U.S. Highway 82, West, Tifton GA 31793"
39055,39055,Stokes Toyota Hilton Head,https://www.stokestoyotahiltonhead.com,50,SC,32.289391,-80.922214,(912) 267-1888,"1000 Millenium Blvd., Brunswick GA 31525"
10117,10117,Valdosta Toyota,https://www.valdostatoyota.com,50,GA,30.842575,-83.332672,(912) 283-4250,"2714 Memorial Drive, Waycross GA 31503"
23057,23057,Kirk Toyota,https://www.kirktoyota.com,60,MS,33.785172,-89.844626,(662) 234-4661,"435A Highway 6 West, Oxford MS 38655"
23069,23069,Carlock Toyota of Tupelo,https://www.carlocktoyotaoftupelo.com,60,MS,34.320489,-88.69915,(662) 378-8101,"1753 Highway 1 South, Greenville MS 38701"
23037,23037,Herrin-Gear Toyota,https://www.herrin-geartoyota.com,60,MS,32.393377,-90.144793,(601) 781-8017,"15120 Highway 16 West, Philadelphia MS 39350"
23076,23076,Cannon Toyota,https://www.cannontoyotavicksburg.com,60,MS,32.3234,-90.8682,(601) 948-0576,"104 Gray Daniels Blvd, Brandon MS 39042"
23062,23062,Kim's Toyota,https://www.kimstoyota.com,60,MS,31.701517,-89.148017,(601) 544-9630,"6461 US Highway 98, Hattiesburg MS 39402"
23050,23050,Estabrook Toyota,https://www.estabrooktoyota.com,60,MS,30.433899,-88.526996,(228) 896-8220,"11397 Helen Richards Road, Gulfport MS 39503"
23061,23061,Carl Hogan Toyota,https://www.carlhogantoyota.com,60,MS,33.549657,-88.43428,(601) 823-7000,"890 Brookway Blvd., Brookhaven MS 39601"
09212,09212,Peter Boulware Toyota,https://www.peterboulwaretoyota.com,50,FL,30.460438,-84.355441,(386) 734-2184,"1701 S. Woodland Blvd, Deland FL 32720"
09182,09182,Gatorland Toyota,https://www.gatorlandtoyota.com,50,FL,29.679864,-82.31909,(850) 769-3377,"959 West 15th Street, Panama City FL 32401"
09209,09209,Seminole Toyota,https://www.seminoletoyota.com,50,FL,28.79435,-81.34089,(407) 681-8904,"225 North Semoran Blvd., Winter Park FL 32792"
09216,09216,West Kendall Toyota,https://www.westkendalltoyota.com,50,FL,25.638973,-80.415459,(786) 259-6434,"29330 S. Dixie Highway, Homestead FL 33033"
09206,09206,AutoNation Toyota Weston,https://www.autonationtoyotaweston.com,50,FL,26.071217,-80.360733,(305) 402-4418,"16600 NW 2nd Avenue, Miami FL 33169"
09158,09158,Lipton Toyota,https://www.liptontoyota.com,50,FL,26.165544,-80.165205,(844) 888-0753,"1841 North State Road 7, Hollywood FL 33021"
09227,09227,Toyota of Deerfield Beach,https://www.toyotaofdeerfieldbeach.com,50,FL,26.299023,-80.094768,(954) 545-6528,"5201 West Sample Road, Coconut Creek FL 33073"
09193,09193,Palm Beach Toyota,https://www.palmbeachtoyota.com,50,FL,26.674539,-80.085171,(561) 599-5083,"2800 South Federal Highway, Delray Beach FL 33483"
09241,09241,Southern 441 Toyota,https://www.southern441toyota.com,50,FL,26.681558,-80.195476,(561) 844-3461,"1215 N. Federal Highway, Lake Park FL 33403"
09154,09154,Stadium Toyota,https://www.stadiumtoyota.com,50,FL,27.99287,-82.50564,(813) 621-7747,"9210 Adamo Drive, Tampa FL 33619"
09230,09230,Gettel Toyota of Lakewood,https://www.getteltoyotaoflakewood.com,50,FL,27.494777,-82.485855,(888) 882-6356,"1101 East Fletcher Avenue, Tampa FL 33612"
09242,09242,Wesley Chapel Toyota,https://www.wesleychapeltoyota.com,50,FL,28.23415,-82.35447,(727) 231-1423,"8501 U.S. Hwy 19 North, Pinellas Park FL 33781"
09168,09168,Gettel Toyota of Bradenton,https://www.getteltoyotaofbradenton.com,50,FL,27.428316,-82.575292,(800) 677-6099,"21799 U.S. Highway 19 North, Clearwater FL 33765"
09112,09112,Germain Toyota of Naples,https://www.germaintoyotaofnaples.com,50,FL,26.291656,-81.802461,(863) 956-1123,"37048 Highway 27, Haines City FL 33844"
09175,09175,Bev Smith Toyota,https://www.bevsmithtoyota.com,50,FL,27.40061,-80.3251,(352) 628-2100,"2431 Suncoast Blvd., Homosassa FL 34448"
09228,09228,Treasure Coast Toyota of Stuart,https://www.treasurecoasttoyotaofstuart.com,50,FL,27.14253,-80.21185,(772) 569-8000,"1075 South US Highway 1, Vero Beach FL 32962"
32015,32015,Cox Toyota,https://www.coxtoyota.com,50,NC,36.06358,-79.523555,(336) 288-9839,"2630 Battleground Avenue, Greensboro NC 27408"
32145,32145,Rocky Mount Toyota,https://www.rockymounttoyota.com,50,NC,35.968973,-77.812327,(919) 493-5599,"4516 Durham Chapel Hill Blvd., Durham NC 27707"
32115,32115,Griffin Toyota,https://www.griffintoyota.com,50,NC,34.909397,-79.717169,(800) 268-4793,"9101 South Boulevard, Charlotte NC 28273"
32024,32024,Massey Toyota,https://www.masseytoyota.com,50,NC,35.261223,-77.660323,(910) 798-1199,"5640 Market Street, Wilmington NC 28405"
32129,32129,Mike Johnson's Hickory Toyota Scion,https://www.hickorytoyota.com,50,NC,35.712047,-81.325241,(252) 321-3000,"3615 South Memorial Drive, Greenville NC 27834"
32113,32113,Bryan Easler Toyota,https://www.bryaneaslertoyota.com,50,NC,35.29988,-82.43941,(828) 585-5825,"777 Brevard Road, Asheville NC 28806"
39056,39056,Scott Will Toyota of Sumter,https://www.scottwilltoyota.com,50,SC,33.959981,-80.398134,(888) 213-4062,"3145 Alcoa Highway, Alcoa TN 37701"
39046,39046,Florence Toyota,https://www.florencetoyota.com,50,SC,34.183425,-79.816285,(803) 729-0976,"878 Highway 1 South, Lugoff SC 29078"
39032,39032,Dave Edwards Toyota,https://www.daveedwardstoyota.com,50,SC,34.919964,-81.996274,(803) 407-5678,"970 Columbiana Drive, Irmo SC 29063"
39059,39059,Fred Anderson Toyota of Charleston,https://www.toyotaofcharleston.com,50,SC,32.791001,-80.03585,(866) 976-8654,"2686 Laurens Road, Greenville SC 29607"
39028,39028,Toyota of Easley,https://www.toyotaofeasley.com,50,SC,34.825328,-82.569712,(843) 797-8000,"7151 Rivers Avenue, North Charleston SC 29406"
50012,50012,Kendall Toyota of Anchorage,https://www.kendalltoyotaofanchorage.com,13,AK,61.157755,-149.865692,(843) 379-8927,"3557 Trask Parkway, Beaufort SC 29906"
50011,50011,Mendenhall Toyota,https://www.mendenhalltoyota.com,13,AK,58.36115,-134.57431,(907) 456-6217,"1000 Cadillac Court, Fairbanks AK 99701"
16005,16005,Green's Toyota of Lexington,https://www.greenstoyotaoflexington.com,22,KY,38.050554,-84.456123,(800) 723-0741,"1001 Leestown Road, Frankfort KY 40601"
16052,16052,Marshall Dry Ridge Toyota,https://www.marshalldryridgetoyota.com,22,KY,38.68267,-84.6039,(859) 887-4200,"2100 Lexington Road, Nicholasville KY 40356"
13022,13022,Craig Toyota,https://www.craigtoyota.com,21,IN,38.775447,-85.392542,(502) 214-7760,"8003 Shelbyville Road, Louisville KY 40222"
16006,16006,Toyota of Louisville,https://www.toyotaoflouisville.com,22,KY,38.155594,-85.835686,(812) 284-2277,"808 E. Lewis & Clark Parkway, Clarksville IN 47129"
13054,13054,Uebelhor Toyota,https://www.uebelhortoyota.com,21,IN,38.37331,-86.94575,(800) 999-7591,"1085 North Dixie Highway, Elizabethtown KY 42701"
16049,16049,Toyota South,https://www.toyotasouth.com,22,KY,37.759931,-84.275255,(270) 926-2500,"4216 Frederica Street, Owensboro KY 42301"
41030,41030,Toyota of Kingsport,https://www.toyotaofkingsport.com,22,TN,36.54659,-82.500561,(800) 859-8761,"4195 South Highway 27, Somerset KY 42503"
16050,16050,Kerry Toyota,https://www.kerrytoyota.com,22,KY,39.004467,-84.655455,(888) 860-5848,"5944 W Andrew Johnson Hwy, Morristown TN 37814"
16058,16058,Kerry Toyota Service Center,www.kerrytoyota.com,22,KY,39.0776,-84.5189,(513) 388-3800,"8667 Beechmont Avenue, Cincinnati OH 45255"
34085,34085,Kings Toyota,https://www.kingstoyota.com,22,OH,39.29334,-84.309744,(513) 385-1800,"9101 Colerain Avenue, Cincinnati OH 45251"
34073,34073,Walker Toyota,https://www.walkertoyota.com,22,OH,39.627343,-84.226654,(513) 874-8797,"5676 Dixie Highway, Fairfield OH 45014"
47028,47028,Advantage Toyota,https://www.advantagetoyota.com,80,WV,38.415122,-82.259474,(606) 744-2727,"3503 Winchester Avenue, Ashland KY 41101"
47030,47030,Moses Toyota,https://www.mosestoyota.com,80,WV,38.387736,-81.827321,(740) 354-3255,"2867 U.S. Route 23, Portsmouth OH 45662"
16062,16062,Mann Toyota,https://www.manntoyota.com,22,KY,37.644617,-82.777283,(304) 855-8200,"63 Admiral Road, Chapmanville WV 25508"
16064,16064,Coad Toyota Paducah,https://www.coadtoyotapaducah.com,22,KY,37.081955,-88.681211,(606) 432-1451,"30 Walters Lane, Pikeville KY 41501"
16042,16042,Toyota of Bowling Green,https://www.toyotaofbowlinggreen.com,22,KY,36.954447,-86.428295,(800) 597-2684,"1301 South 12th Street, Murray KY 42071"
16063,16063,Watermark Toyota,https://www.watermarktoyota.com,22,KY,37.3523,-87.484258,(615) 230-9000,"1435 Nashville Pike, Gallatin TN 37066"
41050,41050,Cumberland Toyota,https://www.cumberlandtoyota.com,22,TN,36.138257,-85.522059,(800) 321-5368,"5600 East Division Street, Evansville IN 47715"
16044,16044,Toyota of Hopkinsville,https://www.toyotaofhopkinsville.com,22,KY,36.823515,-87.474411,(800) 770-6601,"2595 Wilma Rudolph Blvd, Clarksville TN 37040"
41085,41085,Beaman Toyota,https://www.beamantoyota.com,22,TN,36.154799,-86.791285,(888) 340-8222,"2400 Gallatin Pike North, Madison TN 37115"
41062,41062,Peppers Toyota,https://www.pepperstoyota.com,22,TN,36.319057,-88.2803,(615) 623-1496,"1875 West McEwen Drive, Franklin TN 37067"
41079,41079,Toyota of Murfreesboro,https://www.toyotaofmurfreesboro.com,22,TN,35.869131,-86.460882,(866) 762-3787,"1027 Nashville Highway, Columbia TN 38401"
41001,41001,Capital Toyota,https://www.capitaltoyota.net,22,TN,35.019899,-85.201868,(931) 723-4444,"2610 Hillsboro Highway, Manchester TN 37355"
41082,41082,Johnson City Toyota,https://www.johnsoncitytoyota.com,22,TN,36.363635,-82.380902,(423) 664-9715,"3560 Village North Bl SW, McDonald TN 37353"
41086,41086,Fox Toyota,https://www.foxtoyotaclinton.com,22,TN,36.170417,-84.082944,(865) 218-3301,"10415 Parkside Drive, Knoxville TN 37922"
41076,41076,Tim Castellaw Toyota of Dyersburg,https://www.toyotaofdyersburg.com,22,TN,36.058016,-89.397659,(731) 668-1234,"1453 Vann Drive, Jackson TN 38305"
45079,45079,Ourisman Chantilly Toyota,https://www.ourismanchantillytoyota.com,80,VA,38.904777,-77.461385,(931) 438-6300,"2970 Huntsville Highway, Fayetteville TN 37334"
45050,45050,Koons Tysons Toyota,https://www.koonstoyotatysonscorner.com,80,VA,38.932267,-77.243883,(571) 357-3965,"1 Cardinal Park Drive, S.E., Leesburg VA 20175"
45040,45040,Miller Toyota,https://www.millertoyota.com,80,VA,38.769447,-77.492021,(703) 359-1010,"10287 Fairfax Boulevard, Fairfax VA 22030"
45016,45016,Bill Page Toyota,https://www.billpagetoyota.com,80,VA,38.870871,-77.174385,(301) 469-7100,"10400 Auto Park Avenue, Bethesda MD 20817"
19057,19057,355 Toyota,https://www.355toyota.com,80,MD,39.112833,-77.161917,(888) 921-0300,"907 N. Frederick Avenue, Gaithersburg MD 20879"
45023,45023,Priority Toyota Springfield,https://www.prioritytoyotaspringfield.com,80,VA,38.753369,-77.182957,(703) 522-6000,"4045 Lee Highway, Arlington VA 22207"
45035,45035,Lustine Toyota,https://www.lustinetoyota.com,80,VA,38.642161,-77.265512,(866) 927-4401,"6449 Lee Highway, Warrenton VA 20187"
19043,19043,DARCARS Toyota,https://www.darcarstoyota.com,80,MD,39.061269,-76.958568,(301) 696-6300,"5293 Buckeystown Pike, Frederick MD 21704"
19044,19044,Antwerpen's Toyota,https://www.antwerpentoyota.com,80,MD,39.209586,-76.94244,(301) 899-6000,"5001 Auth Way, Suitland MD 20746"
45091,45091,Sheehy Toyota of Stafford,https://www.sheehytoyotastafford.com,80,VA,38.466705,-77.41115,(301) 591-9000,"8801 Freestate Drive, Laurel MD 20723"
19062,19062,Toyota of Bowie,https://www.toyotaofbowie.com,80,MD,38.95171667,-76.71498333,(301) 843-3700,"2600 Crain Highway, Waldorf MD 20601"
19071,19071,Heritage Toyota Catonsville,https://www.heritagetoyotacatonsville.com,80,MD,39.284568,-76.754916,(800) 589-4001,"400 Weems Lane, Winchester VA 22601"
45086,45086,Battlefield Toyota,https://www.battlefieldtoyota.com,80,VA,38.458019,-78.047039,(888) 461-7519,"375 Baltimore Blvd., Westminster MD 21157"
19069,19069,DARCARS Toyota of Baltimore,https://www.darcarstoyotaofbaltimore.com,80,MD,39.28699,-76.54349,(888) 577-0461,"1107 West Street, Annapolis MD 21401"
19021,19021,Bill Kidd's Timonium Toyota,https://www.billkiddstoyota.com,80,MD,39.473775,-76.640276,(410) 661-5700,"8001 Belair Road, Baltimore MD 21236"
45013,45013,McGeorge Toyota,https://www.mcgeorgetoyota.com,80,VA,37.637461,-77.553081,(301) 863-7555,"22500 Three Notch Road, Lexington Park MD 20653"
45084,45084,Haley Toyota of Richmond CC,https://www.haleycertified.com,80,VA,37.496,-77.5508,(804) 559-8719,"6546 Mechanicsville Pike, Mechanicsville VA 23111"
45082,45082,Loyalty Toyota,https://www.loyaltytoyotarichmond.com,80,VA,37.306701,-77.394079,(804) 545-7411,"3600 Lonas Parkway, Midlothian VA 23112"
45094,45094,Gloucester Toyota,https://www.gloucestertoyota.com,80,VA,37.375566,-76.534497,(540) 886-6201,"918 Richmond Road, Staunton VA 24401"
45076,45076,Casey Toyota,https://www.caseytoyota.com,80,VA,37.350595,-76.733408,(757) 874-6000,"12978 Jefferson Avenue, Newport News VA 23608"
45009,45009,Checkered Flag Toyota,https://toyota.checkeredflag.com,80,VA,36.847767,-76.163478,(757) 673-2345,"3400 Western Branch Boulevard, Chesapeake VA 23321"
19075,19075,Hertrich Toyota of Pocomoke,https://www.hertrichtoyotapocomoke.com,80,MD,38.044029,-75.543184,(757) 271-9732,"1877 Laskin Road, Virginia Beach VA 23454"
45077,45077,Haley Toyota of Farmville,https://www.haleytoyotafarmville.com,80,VA,37.275376,-78.399684,(410) 543-2000,"2010 N. Salisbury Blvd., Salisbury MD 21801"
45053,45053,Haley Toyota,https://www.haleytoyotaofroanoke.com,80,VA,37.285418,-79.937212,(877) 757-5770,"19018 Forest Road, Lynchburg VA 24502"
45087,45087,Nelson Toyota,https://www.toyotasbynelson.com,80,VA,36.740522,-79.95362,(540) 381-8417,"2230 Roanoke Street, Christiansburg VA 24073"
47018,47018,Ramey Toyota,https://www.rameytoyota.com,80,WV,37.341841,-81.125939,(434) 822-0300,"125 Piedmont Place, Danville VA 24541"
37130,37130,Fitzgerald Toyota Chambersburg,https://www.fitzgeraldtoyotachambersburg.com,80,PA,39.925454,-77.62032,(304) 513-3777,"1905 Patrick Street Plaza, Charleston WV 25387"
34098,34098,Team Toyota,https://www.teamtoyotaohio.com,22,OH,40.375672,-80.631053,(304) 232-1880,"55 Robinson Drive, Triadelphia WV 26059"
37194,37194,Brewer Airport Toyota,https://brewerairporttoyota.com,80,PA,40.50433,-80.223526,(724) 743-1144,"2403 Washington Road, Canonsburg PA 15317"
37187,37187,Ken Ganley Toyota,https://www.kenganleytoyota.com,80,PA,40.318717,-79.941363,(412) 344-6012,"2020 West Liberty Avenue, Pittsburgh PA 15226"
47012,47012,Superior Toyota,https://www.superiortoyotawv.com,80,WV,39.268278,-81.514403,(304) 296-4401,"60 Don Knotts Blvd., Morgantown WV 26506"
47027,47027,Buckhannon Toyota,https://www.buckhannontoyota.com,80,WV,38.998883,-80.25322,(740) 593-6641,"900 East State Street, Athens OH 45701"
37190,37190,Mike Kelly Toyota of Uniontown,http://www.mikekellytoyota.com,80,PA,39.91208,-79.757717,(888) 312-6712,"2510 White Hall Boulevard, White Hall WV 26554"
07008,07008,Price Toyota,https://www.pricetoyota.com,80,DE,39.674367,-75.595383,(302) 368-6262,"230 E. Cleveland Avenue, Newark DE 19711"
37112,37112,Del Toyota,https://www.deltoyota.com,80,PA,39.992825,-75.766383,(484) 845-7905,"1050 Baltimore Pike, Glen Mills PA 19342"
07005,07005,C F Schwartz Toyota,https://www.cfschwartztoyota.com,80,DE,39.1943,-75.548401,(610) 690-6000,"860 Baltimore Pike, Springfield PA 19064"
37175,37175,Toyota Certified at Central City,https://www.centralcitytoyota.com,80,PA,39.957406,-75.217488,(484) 329-7300,"593 Lancaster Avenue, Malvern PA 19335"
29086,29086,Toyota of Vineland,https://www.toyotaofvineland.com,16,NJ,39.496649,-75.042535,(610) 645-5000,"219 E. Lancaster Avenue, Ardmore PA 19003"
19050,19050,Thompson Toyota,https://www.thompsontoyota.com,80,MD,39.433442,-76.330494,(856) 728-5000,"3400 Route 42, Turnersville NJ 08012"
19005,19005,Jones Toyota,https://www.jonesjunction-toyota.com,80,MD,39.505013,-76.382334,(856) 939-3400,"99 South Black Horse Pike, Runnemede NJ 08078"
37184,37184,New Holland Toyota,https://www.toyotanewholland.com,80,PA,40.097959,-76.102319,(610) 825-7002,"550 Ridge Pike, Conshohocken PA 19428"
37152,37152,Sloane Toyota of Philadelphia,https://www.sloanetoyotaphiladelphia.com,80,PA,40.05566,-75.074228,(484) 984-4999,"15 D & L Drive, Limerick PA 19468"
37101,37101,Sloane Toyota of Glenside,https://www.sloanetoyotaglenside.com,80,PA,40.109767,-75.144183,(856) 866-2000,"1301 Route 73, Mount Laurel NJ 08054"
37083,37083,Lancaster Toyota,https://www.lancastertoyota.com,80,PA,40.089469,-76.346564,(302) 422-2586,"1367 Bay Road, Milford DE 19963"
37132,37132,Peruzzi Toyota,https://www.peruzzitoyota.com,80,PA,40.300662,-75.287452,(215) 244-9300,"2425 Lincoln Highway, Trevose PA 19053"
37150,37150,Team Toyota,https://www.teamtoyotalanghorne.com,80,PA,40.164983,-74.9034,(609) 589-1164,"4397 South Route 130, Burlington NJ 08016"
37077,37077,Performance Motors Toyota,https://www.performancetoyotapa.com,80,PA,40.32688,-76.041701,(267) 898-3207,"122 W. Swamp Road, Doylestown PA 18901"
37138,37138,Hanover Toyota,https://www.hanovertoyota.com,80,PA,39.839858,-77.006855,(800) 864-4914,"1885 Whiteford Road, York PA 17402"
37149,37149,Bobby Rahal Toyota,https://www.bobbyrahaltoyota.com,80,PA,40.23903,-77.052712,(717) 565-9000,"3400 Paxton Street, Harrisburg PA 17111"
37188,37188,Bennett Toyota of Lebanon,https://www.bennetttoyotaoflebanon.com,80,PA,40.339718,-76.460636,(717) 724-1249,"6060 Allentown Blvd, Harrisburg PA 17112"
29075,29075,Sansone Toyota,https://www.sansonestoyota.com,16,NJ,40.592269,-74.274102,(814) 269-3400,"933 Eisenhower Blvd., Johnstown PA 15904"
29083,29083,Route 22 Toyota,https://www.route22toyota.com,16,NJ,40.697248,-74.221547,(973) 467-6151,"170 Route 22 East, Springfield NJ 07081"
29087,29087,Crystal Toyota,https://www.crystaltoyota.com,16,NJ,40.600317,-74.483117,(833) 966-0345,"1591 Hylan Boulevard, Staten Island NY 10305"
29106,29106,DCH Brunswick Toyota,https://www.dchbrunswicktoyota.com,16,NJ,40.45593,-74.479355,(201) 324-2140,"599 Route 440, Jersey City NJ 07304"
31156,31156,Plaza Toyota,https://www.plazatoyota.com,16,NY,40.61816,-73.945086,(929) 346-4537,"6401 6th Avenue, Brooklyn NY 11220"
29059,29059,Toyota of Morristown,https://www.toyotaofmorristown.com,16,NJ,40.805132,-74.46398,(732) 329-9191,"2291 Route 130, Dayton NJ 08810"
29105,29105,DCH Freehold Toyota,https://www.dchfreeholdtoyota.com,16,NJ,40.278497,-74.295065,(888) 928-1592,"677-681 11th Avenue, New York NY 10019"
29078,29078,Toyota Universe,https://www.toyotauniverse.com,16,NJ,40.883904,-74.213483,(201) 939-9400,"85 State Highway 17, Wood Ridge NJ 07075"
29031,29031,Galaxy Toyota,https://www.galaxytoyota.net,16,NJ,40.291614,-74.039874,(718) 335-8600,"62-10 Northern Boulevard, Woodside NY 11377"
31192,31192,Hillside Toyota,https://www.hillsidetoyota.nyc,16,NY,40.704486,-73.815078,(201) 488-7777,"278 River Street, Hackensack NJ 07601"
29037,29037,"Glen Motors, Inc.",https://www.glentoyota.com,16,NJ,40.948616,-74.137978,(201) 944-3300,"50 Sylvan Avenue, Englewood Cliffs NJ 07632"
29081,29081,Crestmont Toyota,https://www.crestmonttoyota.com,16,NJ,40.975096,-74.289485,(855) 959-2624,"236-240 W. Fordham Road, Bronx NY 10468"
29058,29058,Towne Toyota,https://www.townetoyota.com,16,NJ,40.888436,-74.662269,(718) 279-1800,"205-11 Northern Blvd., Bayside NY 11361"
31161,31161,City World Toyota,https://www.cityworldtoyota.com,16,NY,40.874226,-73.852729,(516) 887-8600,"400 Sunrise Highway, Valley Stream NY 11581"
29104,29104,Fred Beans Toyota of Flemington,https://www.fredbeanstoyota.com,16,NJ,40.477717,-74.863216,(609) 883-4200,"2871 Route 1, Lawrenceville NJ 08648"
29095,29095,Toyota World of Lakewood,https://www.lakewoodtoyota.com,16,NJ,40.083502,-74.173113,(908) 638-4100,"2017 Route 31, Clinton NJ 08809"
31135,31135,New Rochelle Toyota,https://www.newrochelletoyota.com,16,NY,40.914543,-73.778288,(551) 777-5200,"1096 Route 17 North, Ramsey NJ 07446"
31138,31138,Westchester Toyota,https://www.westchestertoyota.com,16,NY,40.972936,-73.834946,(516) 874-2581,"257 North Franklin Street, Hempstead NY 11550"
31176,31176,Interstate Toyota,https://www.interstatetoyota.net,16,NY,41.109791,-74.08845,(855) 953-4133,"2400 Northern Blvd., Greenvale NY 11548"
31195,31195,Toyota City,https://www.toyotacityny.com,16,NY,40.954308,-73.717713,(845) 358-2220,"618 Route 303, Blauvelt NY 10913"
31191,31191,Toyota of Massapequa,https://www.toyotaofmassapequany.com,16,NY,40.6739,-73.497,(516) 714-5533,"1121 Old Country Road, Westbury NY 11590"
29092,29092,Gateway Toyota,https://www.gatewaytoyota.com,16,NJ,39.956381,-74.168649,(973) 383-0200,"66 Route 206 North, Newton NJ 07860"
06052,06052,Toyota of Stamford,https://www.toyotaofstamford.com,16,CT,41.055215,-73.523747,(203) 661-5055,"75 E. Putnam Ave, Box 402, Cos Cob CT 06807"
31179,31179,Empire Toyota of Huntington,https://www.toyotaofhuntington.com,16,NY,40.835372,-73.371609,(866) 443-5436,"325 N. Bedford Road, Mt. Kisco NY 10549"
31166,31166,Atlantic Toyota,https://www.atlantictoyotany.com,16,NY,40.7206,-73.304364,(914) 930-3740,"3026 E. Main Street, Cortlandt Manor NY 10567"
06051,06051,New Country Toyota of Westport,https://www.newcountrywestporttoyota.com,16,CT,41.138034,-73.339284,(845) 374-8600,"5021 Route 17M, New Hampton NY 10958"
31171,31171,Newburgh Toyota,https://www.newburghtoyota.com,16,NY,41.515671,-74.103191,(631) 724-3300,"360 East Jericho Turnpike, Smithtown NY 11787"
06032,06032,Greentree Toyota,https://www.greentreetoyota.com,16,CT,41.424973,-73.419459,(845) 298-8880,"1349 Route 9, Wappingers Falls NY 12590"
29069,29069,Shore Toyota,https://www.shoretoyota.com,16,NJ,39.44389,-74.62752,(800) 565-9191,"3816 Hecktown Road, Easton PA 18045"
37036,37036,Krause Toyota,https://www.krausetoyota.com,80,PA,40.574529,-75.621806,(610) 437-6711,"1951 Lehigh Street, Allentown PA 18103"
06050,06050,Hartford Toyota,https://www.hartfordtoyota.com,16,CT,41.789824,-72.657709,(860) 658-3564,"36 Albany Turnpike, Rt 44, West Simsbury CT 06092"
06045,06045,Torrington Toyota,https://www.torringtontoyota.com,16,CT,41.818698,-73.08815,(800) 479-0843,"1069 Farmington Ave, Bristol CT 06010"
06036,06036,Middletown Toyota,https://www.middletowntoyota.com,16,CT,41.576516,-72.671736,(888) 285-9624,"179 Tolland Turnpike, Manchester CT 06040"
06053,06053,Curry Toyota,https://www.currytoyotact.com,16,CT,41.56905,-73.098733,(860) 567-0815,"451 Bantam Road, Litchfield CT 06759"
06047,06047,WOW Toyota of Wallingford,https://www.wow-toyota.com,16,CT,41.479633,-72.811467,(860) 741-3761,"50 Palomba Drive, Enfield CT 06082"
06049,06049,Toyota of Colchester,https://www.toyotaofcolchester.com,16,CT,41.579941,-72.341886,(413) 734-8795,"1399 Riverdale Street, West Springfield MA 01089"
06002,06002,A-1 Toyota,https://www.a1toyota.com,16,CT,41.335911,-72.978339,(413) 596-2000,"2145 Boston Road, Wilbraham MA 01095"
06040,06040,Colonial Toyota,https://www.colonialtoyotact.com,16,CT,41.228373,-73.069176,(413) 586-8922,"280 King Street, Northampton MA 01060"
06037,06037,Charles Toyota,https://www.charlestoyota.com,16,CT,41.503778,-72.091477,(800) 628-4471,"80 Flat Rock Place, Westbrook CT 06498"
06015,06015,Girard Toyota-BMW,https://www.girardtoyota.com,16,CT,41.36469,-72.115931,(413) 445-4535,"130 Pittsfield-Lenox Road, Pittsfield MA 01201"
20117,20117,Herb Chambers Toyota of Auburn,https://www.herbchamberstoyotaofauburn.com,17,MA,42.180687,-71.863999,(508) 943-7474,"191 West Main Street, Dudley MA 01571"
38024,38024,Tarbox Toyota,https://www.tarboxtoyota.com,17,RI,41.600766,-71.497203,(877) 811-7200,"6 Langworthy Road, Westerly RI 02891"
38026,38026,Balise Toyota of Warwick,https://www.balisetoyotaofwarwick.com,17,RI,41.742346,-71.429872,(401) 426-5714,"550 George Washington Hwy, Smithfield RI 02917"
20101,20101,Harr Toyota,https://www.harrtoyota.com,17,MA,42.2901,-71.8034,(401) 438-0350,"415 Taunton Avenue, East Providence RI 02914"
20145,20145,Imperial Toyota,https://www.imperialtoyotama.com,17,MA,42.159,-71.4955,(866) 660-4426,"620 South Washington St., North Attleboro MA 02760"
20140,20140,"Bristol Toyota, Inc.",https://www.bristoltoyota.com,17,MA,41.768517,-71.262656,(508) 621-2210,"271 Turnpike Road, Westborough MA 01581"
31139,31139,Riverhead Toyota,https://www.riverheadtoyota.com,16,NY,40.924133,-72.69902,(888) 696-7076,"285 East Main Road, Middletown RI 02842"
31178,31178,Sunrise Toyota,https://www.sunrisetoyota.com,16,NY,40.748152,-73.141489000000007,(631) 924-8100,"910 Middle Country Road, Middle Island NY 11953"
28020,28020,Rochester Toyota,https://www.rochestertoyota.net,17,NH,43.327738,-71.004977,(603) 749-5500,"40 Dover Point Road, Dover NH 03820"
28040,28040,McGee Toyota of Epping,https://www.mcgeetoyotaofepping.com,17,NH,43.028061,-71.075293,(603) 431-6100,"150 Greenleaf Avenue, Portsmouth NH 03801"
28024,28024,Irwin Toyota,https://www.irwinzonetoyota.com,17,NH,43.536206,-71.466192,(855) 901-9963,"594 Route 3-A, Bow NH 03304"
18037,18037,Berlin City Toyota of Portland,https://www.berlincitytoyotame.com,17,ME,43.683,-70.3259,(603) 624-1800,"33 Autocenter Road, Manchester NH 03103"
28028,28028,Rockingham Toyota,https://www.rockinghamtoyota.com,17,NH,42.7489,-71.2042,(888) 828-6505,"600 River St, Haverhill MA 01832"
18035,18035,Lee Toyota,https://www.leetoyota.com,17,ME,43.9377,-69.9659,(833) 680-7747,"10 Marmon Drive, Nashua NH 03060"
18023,18023,Shepard Toyota,https://www.shepardtoyota.com,17,ME,44.093668,-69.139592,(800) 882-4436,"15 Airport Road, Waterville ME 04901"
18031,18031,York Toyota,https://www.yorkstoyota.com,17,ME,46.146959,-67.840005,(207) 989-0241,"652 Wilson Street, Brewer ME 04412"
44025,44025,Coggins Toyota of Bennington,https://www.cogginstoyotaofbennington.com,17,VT,42.909903,-73.220763,(518) 822-9911,"1908 State Route 9H, Hudson NY 12534"
31132,31132,New Country Toyota of Clifton Park,https://www.toyotaofcliftonpark.com,16,NY,42.870695,-73.725193,(518) 783-1951,"737 New Loudon Road, Latham NY 12110"
28029,28029,Toyota of Keene,https://www.toyotakeene.com,17,NH,42.875373,-72.231658,(518) 374-3700,"2116 Central Ave., Rte. 5, Schenectady NY 12304"
20139,20139,Prime Toyota Route 2,https://www.primetoyotart2.com,17,MA,42.518608,-71.69445,(802) 463-3300,"6896 Route 5 South, Westminster VT 05158"
20109,20109,Bernardi Toyota,https://www.bernarditoyota.com,17,MA,42.2957,-71.4713,(978) 263-1500,"221 Great Road, Littleton MA 01460"
20113,20113,Toyota of Wellesley,https://www.wellesleytoyota.com,17,MA,42.315054,-71.249542,(781) 861-7400,"409 Massachusetts Avenue, Lexington MA 02420"
20019,20019,Toyota of Watertown,https://www.toyotaofwatertown.com,17,MA,42.364367,-71.177262,(781) 933-1100,"394 Washington Street, Woburn MA 01801"
20135,20135,Prime Toyota - Boston,https://www.primetoyotacars.com,17,MA,42.265918,-71.168648,(617) 787-1700,"32 Brighton Avenue, Boston MA 02134"
20127,20127,Ira Toyota,https://www.toyotaofdanvers.com,17,MA,42.554821,-70.962188,(781) 769-8100,"277 Providence Highway, Norwood MA 02062"
20122,20122,Tufankjian Toyota of Braintree,https://www.toyotaofbraintree.com,17,MA,42.211329,-70.998285,(866) 214-1448,"671 Lynnway, Lynn MA 01905"
20063,20063,McGee Toyota,https://www.mcgeetoyota.com,17,MA,42.1289,-70.8326,(844) 400-1612,"1154 New State Highway, Raynham MA 02767"
20096,20096,Falmouth Toyota,https://www.falmouthtoyota.com/,17,MA,41.72191,-70.585018,(781) 585-1300,"5 Gallen Road, Kingston MA 02364"
20137,20137,Hyannis Toyota,https://www.hyannistoyota.com,17,MA,41.672575,-70.303282,(800) 649-4278,"100 Old Faunce Corner Road, North Dartmouth MA 02747"
44016,44016,White River Toyota,https://www.whiterivertoyota.com,17,VT,43.644272,-72.330095,(800) 998-6968,"485 Main Street, Gorham NH 03581"
44022,44022,802 Toyota,https://www.802toyota.com,17,VT,44.220376,-72.563585,(603) 542-5181,"168 Charlestown Road, Claremont NH 03743"
31112,31112,Prestige Toyota,https://www.prestigetoyota-ny.com,16,NY,41.956961,-73.990824,(800) 924-2828,"33 Seward Road, Rutland VT 05701"
31196,31196,Romeo Toyota of Glens Falls,https://www.romeotoyotaofglensfalls.com,16,NY,43.304193,-73.65974,(518) 584-7272,"3002 Route 50, Saratoga Springs NY 12866"
44013,44013,Handy Toyota,https://www.handytoyota.com,17,VT,44.843521,-73.076824,(518) 563-4131,"32 Della Drive, Plattsburgh NY 12901"
31115,31115,Romano Toyota,https://www.romanotoyota.com,16,NY,43.061924,-76.062393,(802) 865-8200,"1620 Shelburne Road, South Burlington VT 05403"
31194,31194,Fox Toyota,https://www.fox-toyota.com,16,NY,42.947117,-76.548579,(315) 458-7590,"5947 East Circle Drive, Cicero NY 13039"
31113,31113,Gault Toyota,https://www.gaulttoyota.com,16,NY,42.107245,-76.037911,(315) 736-8241,"4991 Commercial Drive, Yorkville NY 13495"
31019,31019,Waite Toyota,https://www.waitetoyota.com,16,NY,43.932602,-75.935842,(570) 888-2281,"2468 Elmira Street, Sayre PA 18840"
31175,31175,West Herr Toyota of Williamsville,https://www.toyotawilliamsville.com,16,NY,42.96458,-78.69261,(607) 433-0045,"6281 State Highway 23, Oneonta NY 13820"
31167,31167,Toyota of Batavia,https://www.toyotaofbatavia.com,16,NY,43.007262,-78.223445,(716) 625-8444,"6157 South Transit Road, Lockport NY 14094"
31160,31160,West Herr Toyota of Orchard Park,https://www.toyotaorchardpark.com,16,NY,42.7712,-78.80782,(888) 703-7315,"1135 Millersport Highway, Amherst NY 14226"
31069,31069,Hoselton Toyota,https://www.hoseltontoyota.com,16,NY,43.10067,-77.480876,(716) 763-3300,"215 East Fairmount Avenue, Lakewood NY 14750"
37195,37195,Toyota of Erie,https://www.toyotaoferie.com,80,PA,42.07246,-80.09257,(585) 394-5280,"2435 State Route 332, Canandaigua NY 14424"
21117,21117,Matick Toyota,https://www.maticktoyota.com,22,MI,42.630845,-82.870923,(607) 341-1643,"1074 County Route 64, Elmira NY 14903"
21112,21112,Fox Toyota,https://www.toyotabyfox.com,22,MI,42.669895,-83.132828,(586) 758-2000,"27100 Van Dyke Avenue, Warren MI 48093"
21116,21116,Szott M-59 Toyota,https://www.szottm59toyota.com,22,MI,42.651228,-83.368323,(248) 352-8580,"21262 Telegraph Road, Southfield MI 48033"
21118,21118,Suburban Toyota of Farmington Hills,https://www.suburbantoyotaoffarmingtonhills.com,22,MI,42.4753,-83.43518,(833) 780-0665,"2027 S. Telegraph Road, Dearborn MI 48124"
21043,21043,Dunning Toyota Ann Arbor,https://www.dunningtoyota.com,22,MI,42.28435,-83.805212,(734) 495-3500,"46352 Michigan Avenue, Canton MI 48188"
21073,21073,Grand Blanc Toyota,https://www.grandblancmotorcarstoyota.com,22,MI,42.900514,-83.630058,(419) 841-6681,"6123 West Central Avenue, Toledo OH 43615"
21119,21119,Serra Toyota of Saginaw,https://www.serratoyotasaginaw.com,22,MI,43.4697,-83.9745,(989) 684-2222,"909 N. Euclid Avenue, Bay City MI 48706"
21072,21072,Metro Toyota,https://www.metro-toyota.com,22,MI,42.26698,-85.665061,(269) 965-1000,"1355 West Dickman Road, Battle Creek MI 49037"
21101,21101,Crown Toyota,https://www.crownmotorstoyota.com,22,MI,42.803008,-86.059424,(877) 703-5924,"2555 28th Street, S.E., Grand Rapids MI 49512"
21120,21120,Signature Toyota,https://www.signaturetoyota.com,22,MI,42.086655,-86.442173,(574) 522-6600,"711 N. Nappanee Street, Elkhart IN 46514"
13046,13046,Gates Toyota,https://www.gatestoyota.com,21,IN,41.628129,-86.257303,(574) 259-1981,"920 E. Jefferson Blvd., Mishawaka IN 46545"
21095,21095,Kool Toyota,https://www.kooltoyota.com,22,MI,43.031663,-85.626489,(219) 787-8600,"244 Melton Road, Burns Harbor IN 46304"
21115,21115,Fox Toyota of Cadillac,https://www.foxtoyotaofcadillac.com,22,MI,44.272049,-85.404792,(231) 799-2886,"1860 E. Sternberg Road, Muskegon MI 49444"
21108,21108,Fernelius Toyota,https://www.ferneliustoyota.net,22,MI,45.622352,-84.479433,(231) 486-0884,"1302 S. Garfield Avenue, Traverse City MI 49686"
21100,21100,Riverside Toyota of Escanaba,https://www.riversidetoyotaescanaba.com,22,MI,45.745962,-87.085855,(906) 774-2189,"1600 N. Stephenson Ave., Iron Mountain MI 49801"
34102,34102,Coughlin Toyota,https://www.coughlintoyota.com,22,OH,39.991777,-82.476346,(906) 228-4900,"3330 US Highway 41 West, Marquette MI 49855"
34041,34041,Germain Toyota of Columbus,https://www.germaintoyota.net,22,OH,39.931883,-82.839501,(888) 588-8496,"4248 Morse Road, Columbus OH 43230"
34025,34025,Tansky Sawmill Toyota,https://www.tanskysawmilltoyota.com,22,OH,40.09528,-83.09117,(800) 400-9420,"1903 Riverway Drive, Lancaster OH 43130"
34129,34129,Toyota West,https://www.toyotawestohio.com,22,OH,39.921996,-83.123183,(888) 368-7666,"1599 Columbus Pike, Delaware OH 43015"
34024,34024,Toyota of Logan,https://www.toyotaoflogan.com,22,OH,39.539701,-82.404299,(740) 454-2512,"3260 North Maple Avenue, Zanesville OH 43701"
34050,34050,Graham Toyota,https://www.grahamtoyota.com,22,OH,40.767788,-82.564931,(740) 389-2355,"1111 Mt. Vernon Avenue, Marion OH 43302"
34116,34116,Jeff Wyler Toyota of Springfield,https://jeffwylerspringfieldtoyota.net,22,OH,39.941271,-83.846295,(740) 333-3860,"1132 State Route 41 South, Washington Court House OH 43160"
34126,34126,Yark Toyota,https://www.yarktoyota.com,22,OH,41.5782,-83.663162,(888) 989-0194,"1225 North Main Street, Bowling Green OH 43402"
34104,34104,Ferris Toyota,https://www.ferristoyota.com,22,OH,40.504293,-81.457155,(419) 621-0600,"904 E. Strub Road, Sandusky OH 44870"
34121,34121,Premier Toyota of Amherst,https://www.premiertoyota.com,22,OH,41.41245,-82.233142,(800) 589-8797,"1363 W. Old Lincoln Way, Wooster OH 44691"
34090,34090,Brunswick Toyota,https://www.brunswickautomarttoyota.com,22,OH,41.23975,-81.797097,(216) 267-7000,"13775 Brookpark Road, Cleveland OH 44142"
34107,34107,Motorcars Toyota,https://www.motorcarstoyota.com,22,OH,41.513833,-81.573522,(440) 439-8600,"18151 Rockside Road, Bedford OH 44146"
34109,34109,Ganley Toyota,https://www.ganleytoyota.com,22,OH,41.063883,-81.477328,(234) 312-0405,"1535 Vernon Odom Blvd., Akron OH 44320"
34006,34006,Cain Toyota,https://www.caintoyota.com,22,OH,40.875699,-81.423805,(440) 953-0910,"8510 Tyler Blvd., Mentor OH 44060"
34122,34122,Toyota of Boardman,https://www.toyotaofboardman.com,22,OH,40.99951,-80.66331,(330) 369-1678,"2657 Niles-Cortland Road, Warren OH 44484"
37185,37185,Baierl Toyota,https://www.baierltoyota.com,80,PA,40.670979,-80.09825,(844) 606-3316,"1502 Wilmington Road, New Castle PA 16105"
37109,37109,Palmiero Toyota,https://www.palmierotoyota.net,80,PA,41.620581,-80.212032,(724) 282-8898,"266 Pittsburgh Road, Butler PA 16002"
34130,34130,White's Toyota of Lima,https://www.whitestoyotalima.com,22,OH,40.773265,-84.169095,(800) 474-7884,"722 Allegheny Blvd., Franklin PA 16323"
34096,34096,Voss Toyota,https://www.vosstoyota.com,22,OH,39.70573,-84.01378,(765) 966-4569,"5601 National Road East, Richmond IN 47374"
37162,37162,Spitzer Toyota,https://www.spitzertoyota.com,80,PA,40.43664,-79.737096,(937) 898-8060,"1180 W National Road, Vandalia OH 45377"
37181,37181,Toyota of Greensburg,https://www.toyotaofgreensburg.com,80,PA,40.29837,-79.481549,(724) 515-2221,"12204 Route 30, North Huntingdon PA 15642"
37142,37142,Fiore Toyota,https://www.gofioretoyota.com,80,PA,40.451481,-78.394489,(724) 349-9100,"2600 West Pike Road, Indiana PA 15701"
37179,37179,Bobby Rahal Toyota of Lewistown,https://www.bobbyrahaltoyotaoflewistown.com,80,PA,40.617743,-77.565154,(814) 237-5713,"120 East Clinton Avenue, State College PA 16803"
37155,37155,Aubrey Alexander Toyota,https://www.aubreyalexandertoyota.com,80,PA,40.827988,-76.84238,(844) 215-9406,"203 Lycoming Mall Drive, Muncy PA 17756"
37176,37176,Toyota of Scranton,https://www.toyotaofscranton.com,80,PA,41.448044,-75.642316,(570) 820-6812,"150 Motorworld Drive, Wilkes Barre PA 18702"
12135,12135,Pauly Toyota,https://www.paulytoyota.com,21,IL,42.21262,-88.28562,(866) 981-9540,"4100 N. Perryville Road, Loves Park IL 61111"
48045,48045,Hesser Toyota,https://www.hessertoyota.com,21,WI,42.722142,-89.0018,(877) 351-3961,"75 South Route 12, Fox Lake IL 60020"
12141,12141,Elgin Toyota,https://www.elgintoyota.com,21,IL,42.013769,-88.217935,(815) 748-7300,"1890 Sycamore Road, DeKalb IL 60115"
12144,12144,AutoNation Toyota Libertyville,https://www.autonationtoyotalibertyville.com,21,IL,42.26538,-87.94869,(844) 474-5287,"2095 N. Rand Road, Palatine IL 60074"
12137,12137,Classic Toyota,https://www.classicdirecttoyota.com,21,IL,42.36783,-87.87921,(877) 233-1447,"875 West Golf Road, Schaumburg IL 60194"
48062,48062,Racine Toyota,https://www.racinetoyota.com,21,WI,42.726366,-87.952016,(630) 584-6655,"2651 E. Main Street, St. Charles IL 60174"
12077,12077,Bredemann Toyota,https://www.bredemanntoyota.com,21,IL,42.03952,-87.84287,(847) 272-0808,"1530 Frontage Road, Northbrook IL 60062"
48032,48032,Don Jacobs Toyota,https://www.donjacobstoyota.com,21,WI,42.940583,-87.949823,(630) 827-5168,"725 West Roosevelt Road, Lombard IL 60148"
12134,12134,Oakbrook Toyota in Westmont,https://www.oakbrooktoyota.com,21,IL,41.81083,-87.95959,(630) 357-1578,"1488 West Ogden Avenue, Naperville IL 60540"
12150,12150,Chicago Northside Toyota,https://www.chicagotoyota.com,21,IL,41.991831,-87.689933,(847) 929-9349,"7225 N. Cicero Avenue, Lincolnwood IL 60712"
12013,12013,Toyota On Western,https://www.toyotaonwestern.com,21,IL,41.76703,-87.68322,(312) 707-9500,"1561 North Fremont Street, Chicago IL 60642"
12133,12133,Romeoville Toyota,https://www.romeovilletoyota.com,21,IL,41.599334,-88.123372,(708) 435-2205,"4320 West 95th Street, Oak Lawn IL 60453"
13060,13060,Team Toyota,https://www.teamtoyotaon41.com,21,IN,41.515643,-87.471612,(708) 720-8600,"5540 Auto Court, Matteson IL 60443"
12114,12114,David Bruce Toyota,https://www.davidbrucetoyota.com,21,IL,41.162698,-87.886331,(219) 947-3325,"4450 E. Lincoln Highway, Merrillville IN 46410"
12085,12085,Bill Walsh Toyota,https://www.billwalshtoyota.com,21,IL,41.378657,-88.83505,(888) 289-7832,"104 Eighth Street, Monroe WI 53566"
12103,12103,Green Toyota,https://www.greentoyota.com,21,IL,39.757097,-89.72978,(309) 382-4000,"120 Radio City Drive, North Pekin IL 61554"
12111,12111,Crown Toyota,https://www.crowntoyotadecatur.com,21,IL,39.876323,-88.959282,(309) 585-4830,"1615 Morrissey Drive, Bloomington IL 61704"
12148,12148,Toyota of Danville,https://www.toyotaofdanville.com,21,IL,40.085248,-87.63591,(877) 995-2263,"1101 Napleton Way, Urbana IL 61802"
12126,12126,Dan Hecht Chevrolet/Toyota,https://www.danhechttoyota.com,21,IL,39.098787,-88.546786,(217) 234-8863,"117 South 19th Street, Mattoon IL 61938"
13071,13071,Toyota of Muncie,https://www.toyotaofmuncie.com,21,IN,40.220003,-85.462035,(618) 242-0334,"100 South 45th Street, Mt Vernon IL 62864"
13042,13042,Kokomo Toyota,https://www.kokomo-toyota.com,21,IN,40.442369,-86.127419,(317) 764-2700,"9230 E. 141 Street, Noblesville IN 46060"
13057,13057,O'Brien Toyota,https://www.obrientoyota.com,21,IN,39.804473,-86.045745,(317) 846-9600,"3232 Harper Road, Indianapolis IN 46240"
13049,13049,Beck Toyota,https://www.becktoyota.com,21,IN,39.648976,-86.135786,(317) 297-2444,"6408 Crane Drive, Whitestown IN 46075"
13027,13027,Bob Rohrman Toyota,https://www.rohrmantoyota.com,21,IN,40.418283,-86.832726,(317) 713-8181,"8941 E. U.S. Hwy. 36, Avon IN 46123"
13045,13045,Royal South Toyota,https://www.royalsouthtoyota.com,21,IN,39.128388,-86.530914,(800) 830-6250,"10255 N. U.S. Highway 31, Taylorsville IN 47280"
13035,13035,Evans Toyota,https://www.evanstoyota.com,21,IN,41.117427,-85.149608,(855) 983-0006,"448 W. 250 North, Warsaw IN 46582"
13069,13069,Toyota of Terre Haute,https://www.toyotaofterrehaute.com,21,IN,39.382416,-87.393706,(800) 488-3528,"5900 Illinois Road, Fort Wayne IN 46804"
48064,48064,International Toyota,https://www.internationaltoyota.com,21,WI,43.756971,-87.762033,(262) 334-9411,"2700 W. Washington St., West Bend WI 53095"
48039,48039,Andrew Toyota,https://www.andrewtoyota.com,21,WI,43.11941,-87.93062,(414) 357-2100,"11301 West Metro Auto Mall, Milwaukee WI 53224"
48007,48007,Smart Toyota,https://www.smarttoyota.com,21,WI,43.05102,-89.48171,(920) 966-1616,"3245 S. Washburn Street, Oshkosh WI 54904"
48005,48005,Le Mieux & Son Toyota,https://www.lemieuxtoyota.com,21,WI,44.48136,-88.071172,(800) 843-8941,"3501 Lancaster Drive, Madison WI 53718"
48059,48059,Toyota of Wausau,https://www.toyotaofwausau.com,21,WI,44.998022,-89.664037,(888) 565-6776,"3000 W. Wisconsin Avenue, Appleton WI 54914"
48066,48066,Rhinelander Toyota,https://www.rhinelandertoyota.com,21,WI,45.656976,-89.383027,(715) 342-5040,"1765 Park Avenue, Plover WI 54467"
